BEIDOU-3S IGSO-1S       
1 40549U 15019A   26164.85509376 -.00000180  00000+0  00000+0 0  9998
2 40549  49.2022 295.5028 0038983 190.8193 175.4051  1.00251097 41043
NAVSTAR 74 (USA 262)    
1 40730U 15033A   26164.73086234 -.00000017  00000+0  00000+0 0  9995
2 40730  53.9851 267.2291 0115065  30.2200 330.4662  2.00556346 79923
BEIDOU-3S M2S           
1 40748U 15037A   26162.95383127 -.00000067  00000+0  00000+0 0  9996
2 40748  54.8763 302.2271 0008107 260.4209  99.4710  1.86232251 74027
BEIDOU-3S M1S           
1 40749U 15037B   26164.23564090 -.00000069  00000+0  00000+0 0  9992
2 40749  54.8712 302.1701 0003517  61.4306 298.5865  1.86254754 74054
GSAT0205 (GALILEO 9)    
1 40889U 15045A   26144.30399159 -.00000014  00000+0  00000+0 0  9994
2 40889  54.9357 222.4171 0006405 263.0112  96.9692  1.67409242 66562
GSAT0206 (GALILEO 10)   
1 40890U 15045B   26164.35123010  .00000061  00000+0  00000+0 0  9995
2 40890  54.9458 221.7104 0001697 337.4891  22.6033  1.70473791 66976
BEIDOU-3S IGSO-2S       
1 40938U 15053A   26163.74469534 -.00000142  00000+0  00000+0 0  9994
2 40938  49.2285 258.8368 0065652 191.9654 173.7671  1.00260455 39316
NAVSTAR 75 (USA 265)    
1 41019U 15062A   26164.78711559 -.00000062  00000+0  00000+0 0  9998
2 41019  56.9570  30.9422 0111830 231.0904 127.9641  2.00566893 77768
GSAT-15                 
1 41028U 15065A   26165.42208593 -.00000250  00000+0  00000+0 0  9991
2 41028   0.0774 265.7676 0004076 161.1252  81.2698  1.00271049 38772
GSAT0209 (GALILEO 12)   
1 41174U 15079A   26165.10581155 -.00000009  00000+0  00000+0 0  9993
2 41174  55.8256 101.3465 0005336 342.3139  17.6233  1.70473658 64724
GSAT0208 (GALILEO 11)   
1 41175U 15079B   26164.15294851 -.00000004  00000+0  00000+0 0  9997
2 41175  55.8236 101.3694 0004827 343.9776  15.9636  1.70473585 65127
IRNSS-1E                
1 41241U 16003A   26163.64327530 -.00000313  00000+0  00000+0 0  9996
2 41241  33.2248  59.8162 0017963 179.0965   5.2620  1.00267194 38039
NAVSTAR 76 (USA 266)    
1 41328U 16007A   26161.88615589 -.00000012  00000+0  00000+0 0  9990
2 41328  55.5202  89.7095 0096068 247.3778 111.5924  2.00551975 75711
COSMOS 2514 [GLONASS-M] 
1 41330U 16008A   26165.00033914 -.00000053  00000+0  00000+0 0  9993
2 41330  65.0237 313.1159 0011165 197.7878 162.1578  2.13102509 80551
BEIDOU-2 IGSO-6         
1 41434U 16021A   26164.01229207 -.00000156  00000+0  00000+0 0  9999
2 41434  60.2196  38.0819 0057077 231.5209  89.2880  1.00259939 37439
IRNSS-1G                
1 41469U 16027A   26165.51489019 -.00000331  00000+0  00000+0 0  9993
2 41469   5.1915  97.5344 0007539 354.3555 125.8131  1.00267391 37159
GSAT0211 (GALILEO 14)   
1 41549U 16030A   26165.45012090  .00000059  00000+0  00000+0 0  9996
2 41549  55.0959 221.7703 0002887 323.8922  36.1904  1.70473900 62624
GSAT0210 (GALILEO 13)   
1 41550U 16030B   26163.36105147  .00000059  00000+0  00000+0 0  9992
2 41550  55.0961 221.8258 0004052 240.3650 119.6902  1.70473729 62581
BEIDOU-2 G7             
1 41586U 16037A   26165.49672414 -.00000346  00000+0  00000+0 0  9990
2 41586   1.7121  69.2922 0006794   3.9103 118.8529  1.00265019  6868
EUTELSAT 117 WEST B     
1 41589U 16038B   26165.50670014 -.00000004  00000+0  00000+0 0  9991
2 41589   0.0431 167.2819 0000357 269.5313 251.4058  1.00268707 36639
GSAT0207 (GALILEO 15)   
1 41859U 16069A   26164.22587441 -.00000005  00000+0  00000+0 0  9995
2 41859  55.4965 101.1958 0005340 329.2109  30.7143  1.70473583 59332
GSAT0212 (GALILEO 16)   
1 41860U 16069B   26164.07931082 -.00000004  00000+0  00000+0 0  9993
2 41860  55.4941 101.1951 0004653 357.9149   2.0398  1.70473740 59585
GSAT0213 (GALILEO 17)   
1 41861U 16069C   26162.68680405  .00000007  00000+0  00000+0 0  9991
2 41861  55.4953 101.2414 0005060 311.8034  48.1151  1.70474158 59424
GSAT0214 (GALILEO 18)   
1 41862U 16069D   26163.41958315  .00000001  00000+0  00000+0 0  9996
2 41862  55.4945 101.2137 0004287 319.1479  40.7786  1.70473835 59560
SES-15                  
1 42709U 17026A   26165.51016868  .00000067  00000+0  00000+0 0  9994
2 42709   0.0196 336.5575 0000361  56.3484 284.3912  1.00268126  7400
QZS-2 (MICHIBIKI-2)     
1 42738U 17028A   26160.53939596 -.00000147  00000+0  00000+0 0  9997
2 42738  39.4388 243.2674 0760581 269.1776  81.0235  1.00285994  7547
QZS-3 (MICHIBIKI-3)     
1 42917U 17048A   26165.45449031  .00000000  00000+0  00000+0 0  9991
2 42917   0.0261 158.7309 0002422 293.7784 100.8061  1.00264224 32234
COSMOS 2522 [GLONASS-M] 
1 42939U 17055A   26164.36890624  .00000114  00000+0  00000+0 0  9996
2 42939  64.0787 192.0144 0010818 240.5111 119.4561  2.13101904 67892
QZS-4 (MICHIBIKI-4)     
1 42965U 17062A   26165.35787890 -.00000335  00000+0  00000+0 0  9999
2 42965  40.1096 343.5183 0745249 271.7117 273.4729  1.00251032 31778
BEIDOU-3 M1             
1 43001U 17069A   26164.37433310 -.00000055  00000+0  00000+0 0  9993
2 43001  56.6884  63.2107 0010559 324.8482  35.1090  1.86231168 58532
BEIDOU-3 M2             
1 43002U 17069B   26163.77611076 -.00000055  00000+0  00000+0 0  9994
2 43002  56.6872  63.2666 0009220 350.0125   9.9939  1.86230859 58513
